IRIDIUM 921 [-]         
1 24873U 97034E   23295.56224234  .00016545  00000+0  62767-3 0  9997
2 24873  86.3888  44.8791 0006727  82.3359 277.8651 15.26723201438642
IRIDIUM 26 [-]          
1 24903U 97043A   23295.56417511  .00000549  00000+0  18220-3 0  9995
2 24903  86.4012   3.8767 0001998  90.6264 269.5162 14.36050198370082
IRIDIUM 22 [-]          
1 24907U 97043E   23295.57612731  .00000564  00000+0  19157-3 0  9998
2 24907  86.4018   6.9172 0002225  92.2355 267.9096 14.34957784370183
DUMMY MASS 1 [-]        
1 24925U 97048A   23295.61932389  .00000802  00000+0  88874-4 0  9990
2 24925  86.3359  54.1632 0008907 116.1100 244.1041 14.85887228415473
DUMMY MASS 2 [-]        
1 24926U 97048B   23295.34797821  .00000869  00000+0  97098-4 0  9992
2 24926  86.3355  55.7900 0009471 126.1180 234.0923 14.85648119415225
IRIDIUM 29 [-]          
1 24944U 97051A   23295.58486143  .00000511  00000+0  17133-3 0  9999
2 24944  86.3999  36.8789 0002365  90.3860 269.7608 14.35414243366657
IRIDIUM 33 [-]          
1 24946U 97051C   23295.53463140  .00000500  00000+0  17178-3 0  9995
2 24946  86.3915  36.1749 0006026 239.6717 120.3883 14.34152321366206
IRIDIUM 28 [-]          
1 24948U 97051E   23295.53686133  .00000708  00000+0  23555-3 0  9992
2 24948  86.4007  34.7625 0001726  94.9067 265.2327 14.36352255367168
